NORAD_CAT_ID,OBJECT_NAME,OBJECT_TYPE,EPOCH,MEAN_MOTION,ECCENTRICITY,INCLINATION,RA_OF_ASC_NODE,ARG_OF_PERICENTER,MEAN_ANOMALY,BSTAR,MEAN_MOTION_DOT,MEAN_MOTION_DDOT,TLE_LINE0,TLE_LINE1,TLE_LINE2,SEMIMAJOR_AXIS,PERIOD,APOGEE,PERIGEE,DECAYED
53140.0,STARLINK-4170,PAYLOAD,2023-04-05 13:10:22,15.08845454,9.74e-05,53.2145,293.6787,85.2709,274.8394,0.0001853,2.663e-05,0.0,0 STARLINK-4170,1 53140U 22083J   23095.54887173  .00002663  00000-0  18530-3 0  9997,2 53140  53.2145 293.6787 0000974  85.2709 274.8394 15.08845454 39810,6917.864,95.437,540.403,539.055,0.0
53140.0,STARLINK-4170,PAYLOAD,2023-04-05 19:31:54,15.08847834,9.62e-05,53.2151,292.4898,75.1534,284.9565,0.00022897,3.359e-05,0.0,0 STARLINK-4170,1 53140U 22083J   23095.81383071  .00003359  00000-0  22897-3 0  9999,2 53140  53.2151 292.4898 0000962  75.1534 284.9565 15.08847834 40489,6917.856,95.437,540.387,539.056,0.0
53140.0,STARLINK-4170,PAYLOAD,2023-04-06 13:01:09,15.08840787,9.74e-05,53.2133,289.2194,63.0649,297.0443,0.00013446,1.853e-05,0.0,0 STARLINK-4170,1 53140U 22083J   23096.54247328  .00001853  00000-0  13446-3 0  9991,2 53140  53.2133 289.2194 0000974  63.0649 297.0443 15.08840787 40590,6917.878,95.438,540.417,539.069,0.0
53140.0,STARLINK-4170,PAYLOAD,2023-04-06 19:22:42,15.08842911,0.000109,53.2147,288.0305,74.2478,285.8635,0.00013942,1.932e-05,0.0,0 STARLINK-4170,1 53140U 22083J   23096.80743218  .00001932  00000-0  13942-3 0  9998,2 53140  53.2147 288.0305 0001090  74.2478 285.8635 15.08842911 40005,6917.871,95.437,540.491,538.982,0.0
53140.0,STARLINK-4170,PAYLOAD,2023-04-07 12:51:56,15.08838897,0.0001117,53.2156,284.7605,73.5179,286.5935,7.2789e-05,8.71e-06,0.0,0 STARLINK-4170,1 53140U 22083J   23097.53607442  .00000871  00000-0  72789-4 0  9993,2 53140  53.2156 284.7605 0001117  73.5179 286.5935 15.08838897 40112,6917.884,95.438,540.521,538.976,0.0
53140.0,STARLINK-4170,PAYLOAD,2023-04-07 19:13:28,15.08843745,0.0001234,53.2186,283.5704,84.2569,275.8563,0.00012796,1.749e-05,0.0,0 STARLINK-4170,1 53140U 22083J   23097.80102933  .00001749  00000-0  12796-3 0  9994,2 53140  53.2186 283.5704 0001234  84.2569 275.8563 15.08843745 40783,6917.869,95.437,540.588,538.88,0.0
53140.0,STARLINK-4170,PAYLOAD,2023-04-08 11:07:20,15.08838405,0.0001452,53.2128,280.598,92.0131,268.1027,5.5147e-05,5.9e-06,0.0,0 STARLINK-4170,1 53140U 22083J   23098.46343428  .00000590  00000-0  55147-4 0  9994,2 53140  53.2128 280.5980 0001452  92.0131 268.1027 15.08838405 40884,6917.885,95.438,540.755,538.746,0.0
53140.0,STARLINK-4170,PAYLOAD,2023-04-09 04:36:35,15.08834139,0.0001095,53.2162,277.326,82.788,277.3236,5.9753e-05,6.63e-06,0.0,0 STARLINK-4170,1 53140U 22083J   23099.19208106  .00000663  00000-0  59753-4 0  9996,2 53140  53.2162 277.3260 0001095  82.7880 277.3236 15.08834139 40993,6917.898,95.438,540.521,539.006,0.0
53140.0,STARLINK-4170,PAYLOAD,2023-04-09 18:55:03,15.08842585,0.0001007,53.2168,274.6494,90.3805,269.7302,9.1072e-05,1.162e-05,0.0,0 STARLINK-4170,1 53140U 22083J   23099.78823628  .00001162  00000-0  91072-4 0  9998,2 53140  53.2168 274.6494 0001007  90.3805 269.7302 15.08842585 41087,6917.872,95.437,540.434,539.041,0.0
53140.0,STARLINK-4170,PAYLOAD,2023-04-09 20:30:26,15.08843261,0.0001006,53.2161,274.3514,91.6897,268.4211,9.4906e-05,1.223e-05,0.0,0 STARLINK-4170,1 53140U 22083J   23099.85447580  .00001223  00000-0  94906-4 0  9992,2 53140  53.2161 274.3514 0001006  91.6897 268.4211 15.08843261 40462,6917.87,95.437,540.431,539.039,0.0
53140.0,STARLINK-4170,PAYLOAD,2023-04-10 12:24:18,15.08838866,0.0001068,53.2159,271.3775,92.0898,268.0216,0.00013934,1.93e-05,0.0,0 STARLINK-4170,1 53140U 22083J   23100.51687823  .00001930  00000-0  13934-3 0  9990,2 53140  53.2159 271.3775 0001068  92.0898 268.0216 15.08838866 40566,6917.884,95.438,540.488,539.01,0.0
53140.0,STARLINK-4170,PAYLOAD,2023-04-10 20:21:13,15.08849277,0.0001094,53.2161,269.8907,94.2612,265.8505,0.00025487,3.772e-05,0.0,0 STARLINK-4170,1 53140U 22083J   23100.84807257  .00003772  00000-0  25487-3 0  9993,2 53140  53.2161 269.8907 0001094  94.2612 265.8505 15.08849277 40615,6917.852,95.437,540.474,538.96,0.0
53140.0,STARLINK-4170,PAYLOAD,2023-04-11 04:18:09,15.0883783,7.83e-05,53.2157,268.4046,88.5888,271.5194,5.2843e-05,5.53e-06,0.0,0 STARLINK-4170,1 53140U 22083J   23101.17927761  .00000553  00000-0  52843-4 0  9994,2 53140  53.2157 268.4046 0000783  88.5888 271.5194 15.08837830 41299,6917.887,95.438,540.294,539.21,0.0
53140.0,STARLINK-4170,PAYLOAD,2023-04-11 12:15:05,15.08839337,0.0001116,53.216,266.9171,85.8298,274.2822,7.9237e-05,9.73e-06,0.0,0 STARLINK-4170,1 53140U 22083J   23101.51047875  .00000973  00000-0  79237-4 0  9993,2 53140  53.2160 266.9171 0001116  85.8298 274.2822 15.08839337 40719,6917.882,95.438,540.519,538.975,0.0
53140.0,STARLINK-4170,PAYLOAD,2023-04-11 17:01:14,15.08843331,9.9e-05,53.2166,266.0272,89.3941,270.7164,0.00012649,1.726e-05,0.0,0 STARLINK-4170,1 53140U 22083J   23101.70919717  .00001726  00000-0  12649-3 0  9997,2 53140  53.2166 266.0272 0000990  89.3941 270.7164 15.08843331 40743,6917.87,95.437,540.42,539.05,0.0
53140.0,STARLINK-4170,PAYLOAD,2023-04-12 10:30:29,15.08839688,0.0001153,53.216,262.7544,90.4296,269.6828,7.3393e-05,8.8e-06,0.0,0 STARLINK-4170,1 53140U 22083J   23102.43783765  .00000880  00000-0  73393-4 0  9994,2 53140  53.2160 262.7544 0001153  90.4296 269.6828 15.08839688 41486,6917.881,95.438,540.544,538.949,0.0
53140.0,STARLINK-4170,PAYLOAD,2023-04-13 03:59:43,15.08840901,0.0001188,53.216,259.4858,76.2194,283.893,-4.3699e-06,-3.57e-06,0.0,0 STARLINK-4170,1 53140U 22083J   23103.16647701 -.00000357  00000-0 -43699-5 0  9992,2 53140  53.2160 259.4858 0001188  76.2194 283.8930 15.08840901 40968,6917.878,95.437,540.564,538.921,0.0
53140.0,STARLINK-4170,PAYLOAD,2023-04-13 16:42:48,15.08841041,0.0001046,53.2186,257.1071,61.7247,298.385,0.00014193,1.972e-05,0.0,0 STARLINK-4170,1 53140U 22083J   23103.69639833  .00001972  00000-0  14193-3 0  9994,2 53140  53.2186 257.1071 0001046  61.7247 298.3850 15.08841041 41676,6917.877,95.437,540.466,539.019,0.0
53140.0,STARLINK-4170,PAYLOAD,2023-04-14 10:12:03,15.08836857,0.0001687,53.2124,253.834,76.7833,283.3347,3.4066e-05,2.54e-06,0.0,0 STARLINK-4170,1 53140U 22083J   23104.42504171  .00000254  00000-0  34066-4 0  9996,2 53140  53.2124 253.8340 0001687  76.7833 283.3347 15.08836857 41155,6917.89,95.438,540.922,538.588,0.0
53140.0,STARLINK-4170,PAYLOAD,2023-04-15 13:13:36,15.08841443,0.000138,53.2137,248.778,86.9496,273.1654,6.2908e-05,7.13e-06,0.0,0 STARLINK-4170,1 53140U 22083J   23105.55111873  .00000713  00000-0  62908-4 0  9990,2 53140  53.2137 248.7780 0001380  86.9496 273.1654 15.08841443 41322,6917.876,95.437,540.696,538.786,0.0
53140.0,STARLINK-4170,PAYLOAD,2023-04-15 19:35:08,15.08858224,0.0001095,53.2159,247.5886,81.5536,278.558,0.00019909,2.884e-05,0.0,0 STARLINK-4170,1 53140U 22083J   23105.81606944  .00002884  00000-0  19909-3 0  9990,2 53140  53.2159 247.5886 0001095  81.5536 278.5580 15.08858224 41365,6917.825,95.436,540.447,538.932,0.0
53140.0,STARLINK-4170,PAYLOAD,2023-04-16 01:56:41,15.0884014,0.0001428,53.2146,246.3984,88.6219,271.4936,-2.5002e-06,-3.28e-06,0.0,0 STARLINK-4170,1 53140U 22083J   23106.08103853 -.00000328  00000-0 -25002-5 0  9997,2 53140  53.2146 246.3984 0001428  88.6219 271.4936 15.08840140 42033,6917.88,95.438,540.733,538.757,0.0
53140.0,STARLINK-4170,PAYLOAD,2023-04-16 13:04:23,15.08841658,0.0001351,53.215,244.3176,98.3896,261.7249,6.5979e-05,7.62e-06,0.0,0 STARLINK-4170,1 53140U 22083J   23106.54471832  .00000762  00000-0  65979-4 0  9999,2 53140  53.2150 244.3176 0001351  98.3896 261.7249 15.08841658 41474,6917.875,95.437,540.675,538.806,0.0
53140.0,STARLINK-4170,PAYLOAD,2023-04-16 19:25:55,15.08856161,0.0001253,53.2153,243.1287,97.0686,263.0449,0.00046003,7.044e-05,0.0,0 STARLINK-4170,1 53140U 22083J   23106.80967298  .00007044  00000-0  46003-3 0  9990,2 53140  53.2153 243.1287 0001253  97.0686 263.0449 15.08856161 41518,6917.831,95.437,540.563,538.829,0.0
53140.0,STARLINK-4170,PAYLOAD,2023-04-17 12:55:10,15.08835892,0.000171,53.2165,239.8575,88.2131,271.9056,-3.5808e-05,-8.58e-06,0.0,0 STARLINK-4170,1 53140U 22083J   23107.53832154 -.00000858  00000-0 -35808-4 0  9993,2 53140  53.2165 239.8575 0001710  88.2131 271.9056 15.08835892 42250,6917.893,95.438,540.941,538.575,0.0
53140.0,STARLINK-4170,PAYLOAD,2023-04-17 16:05:57,15.08837282,0.000137,53.2167,239.263,90.2091,269.9058,4.4919e-05,4.27e-06,0.0,0 STARLINK-4170,1 53140U 22083J   23107.67080119  .00000427  00000-0  44919-4 0  9997,2 53140  53.2167 239.2630 0001370  90.2091 269.9058 15.08837282 41644,6917.889,95.438,540.701,538.806,0.0
53140.0,STARLINK-4170,PAYLOAD,2023-04-18 09:35:11,15.08864945,0.0001152,53.2162,235.9917,97.4814,262.6309,0.0013156,0.00020726,0.0,0 STARLINK-4170,1 53140U 22083J   23108.39943568  .00020726  00000-0  13156-2 0  9994,2 53140  53.2162 235.9917 0001152  97.4814 262.6309 15.08864945 41757,6917.804,95.436,540.466,538.872,0.0
53140.0,STARLINK-4170,PAYLOAD,2023-04-18 12:45:57,15.08876083,0.0001164,53.2165,235.3974,95.0669,265.0456,0.001627,0.00025726,0.0,0 STARLINK-4170,1 53140U 22083J   23108.53191239  .00025726  00000-0  16270-2 0  9995,2 53140  53.2165 235.3974 0001164  95.0669 265.0456 15.08876083 42401,6917.77,95.435,540.44,538.83,0.0
53140.0,STARLINK-4170,PAYLOAD,2023-04-18 17:32:06,15.08890112,0.0001242,53.2161,234.5047,91.4465,268.6669,0.0017812,0.00028213,0.0,0 STARLINK-4170,1 53140U 22083J   23108.73062598  .00028213  00000-0  17812-2 0  9999,2 53140  53.2161 234.5047 0001242  91.4465 268.6669 15.08890112 41807,6917.727,95.434,540.451,538.733,0.0
53140.0,STARLINK-4170,PAYLOAD,2023-04-19 07:50:34,15.08857508,0.0002756,53.2158,231.8302,73.5474,286.5821,0.0012768,0.00020101,0.0,0 STARLINK-4170,1 53140U 22083J   23109.32679341  .00020101  00000-0  12768-2 0  9998,2 53140  53.2158 231.8302 0002756  73.5474 286.5821 15.08857508 41899,6917.827,95.436,541.598,537.785,0.0
